#aV2023  6 29  0  0  0.00000000     288 DD+AD WGS84 FIT  NGA
## 2268 345600.00000000   300.00000000 60124 0.0000000000000
+   32     1  2  3  4  5  6  7  8  9 10 11 12 13 14 15 16 17
+         18 19 20 21 22 23 24 25 26 27 28 29 30 31 32  0  0
+          0  0  0  0  0  0  0  0  0  0  0  0  0  0  0  0  0
+          0  0  0  0  0  0  0  0  0  0  0  0  0  0  0  0  0
+          0  0  0  0  0  0  0  0  0  0  0  0  0  0  0  0  0
++         2  2  2  2  2  2  2  2  2  2  2  2  2  2  2  2  2
++         2  2  2  2  2  2  2  2  2  2  2  2  2  2  2  0  0
++         0  0  0  0  0  0  0  0  0  0  0  0  0  0  0  0  0
++         0  0  0  0  0  0  0  0  0  0  0  0  0  0  0  0  0
++         0  0  0  0  0  0  0  0  0  0  0  0  0  0  0  0  0
%c cc cc ccc ccc cccc cccc cccc cccc ccccc ccccc ccccc ccccc
%c cc cc ccc ccc cccc cccc cccc cccc ccccc ccccc ccccc ccccc
%f  0.0000000  0.000000000  0.00000000000  0.000000000000000
%f  0.0000000  0.000000000  0.00000000000  0.000000000000000
%i    0    0    0    0      0      0      0      0         0
%i    0    0    0    0      0      0      0      0         0
/*      NGA, ST. LOUIS,MO.                                  
/*   EPHEMERIS COMPUTED FROM 2 DAYS OF DATA                 
/*   EPOCHA v8 SMOOTHER                                     
/*   G2139 IERS2010 SATIGS SATAPC                           
*  2023  6 29 17  0  0.00000000
P  1  20513.349293  14653.720582  -9243.589941    175.514999                    
V  1 -10840.320210  -2811.768138 -29281.169657     -0.021187                    
P  2  16959.513974  14720.773800 -13789.725846   -581.096001                    
V  2 -18165.369302  -3025.833983 -24532.431359      0.037297                    
P  3  12516.458649  18876.235997  13832.185257   -252.327679                    
V  3   1217.780378  17753.511478 -24963.632926      0.146384                    
P  4  14042.732150   7804.688122  21180.389838     81.781747                    
V  4 -20936.991778  16804.680232   7579.936871      0.105948                    
P  5  -4998.129681 -26004.874393    781.995598   -132.982347                    
V  5   2925.146847    613.826919  31941.630102     -0.014479                    
P  6  15452.165340  -8185.147738  20080.527123    582.002275                    
V  6  23291.642577   9819.452089 -13868.066626     -0.027270                    
P  7  25594.249662   5833.887098  -5021.068903    139.044450                    
V  7   5470.338370   4996.760918  30346.290417     -0.104889                    
P  8   3607.542568  16178.248913 -20742.167342   -129.740464                    
V  8 -20505.575669  16456.610618   9688.838697     -0.018626                    
P  9  20440.116560  -1958.034240  16794.516973   -124.213969                    
V  9 -15048.242827  15420.689727  19981.307523      0.090834                    
P 10 -11914.410732  11719.722244 -20384.276237    -43.162478                    
V 10  -5336.537892 -25792.170754 -11912.735072     -0.015605                    
P 11   -339.058083 -16098.074459  21138.934424   -255.277986                    
V 11  24845.660863  10068.481107   8025.419723     -0.155932                    
P 12  -9804.636055 -21947.045330  11106.493892   -394.623241                    
V 12    937.688130 -14643.045994 -27349.013298     -0.046662                    
P 13   5788.036454 -18345.408118 -18401.419115    540.569437                    
V 13  20412.430897 -10807.076758  17570.427404      0.050684                    
P 14  14012.850438  -8342.279874 -20920.518531    106.450132                    
V 14   4403.743286  26323.868957  -7696.646688      0.122294                    
P 15  -6432.813826 -15793.501034 -20777.410551     53.391660                    
V 15  17999.797725 -18097.570647   8631.538459      0.035396                    
P 16   -779.448295  25952.270431   3983.633888   -486.333238                    
V 16  -3470.134518  -5251.274635  31604.193559      0.041411                    
P 17  22393.531033 -14084.450257  -2532.704458    719.787089                    
V 17  -1651.178982   4072.571380 -31759.002605      0.010104                    
P 18 -24952.832837  -3594.869164  -8621.236934   -326.650924                    
V 18  -9344.330601  -5953.608565  29376.766381     -0.146177                    
P 19  20000.987294 -16624.661091   4247.200598    337.181708                    
V 19   6244.584896   -898.425398 -31619.215116      0.051347                    
P 20   -101.677942 -24303.765262  10965.017336    425.363275                    
V 20   6979.130401  12218.865545  27046.393643     -0.020474                    
P 21  14864.438356  15488.056902 -15642.392908    152.671403                    
V 21 -20174.060101  -4031.655850 -21540.165270     -0.003575                    
P 22 -17201.657836  18664.567915   7990.519781    505.391902                    
V 22  -9361.157971   3302.648482 -29699.439282      0.057491                    
P 23 -15331.790832  -1991.152728 -21611.779530     38.034244                    
V 23  -4901.526391 -26946.961326   5803.716008      0.038990                    
P 24 -17983.447282 -15095.150041 -13169.785963   -241.433661                    
V 24  16138.051093   1859.447959 -24434.665042     -0.127092                    
P 25 -15376.206356 -10605.232997  18670.295273    452.983739                    
V 25  -2849.169054 -24171.949844 -15553.331804      0.024371                    
P 26  -6467.219474  20703.388379  14980.794791    237.860965                    
V 26  -7285.831272 -18251.122882  22248.926936     -0.009816                    
P 27  -8031.656277  20243.990156 -15163.774810      6.812625                    
V 27 -15925.651254  10502.565761  23236.559778     -0.074369                    
P 28 -17026.308614   8058.311808  18703.368836     83.590443                    
V 28 -22090.659855  -8953.033477 -16237.050541     -0.002576                    
P 29 -19522.039450  -1134.861820  17966.174654   -604.236018                    
V 29  17944.208064 -14198.577338  18450.798165     -0.010176                    
P 30  22525.099058  -2379.290782 -13960.796796   -507.770798                    
V 30  15764.976727   8847.163848  23461.561210      0.026149                    
P 31  -6133.217602  14001.798704  21547.173402   -219.125839                    
V 31 -25855.283432 -10219.831952   -294.750728     -0.007291                    
P 32 -20680.294984  16455.262227   -954.813808   -510.814586                    
V 32   -840.702935  -3241.049712 -31833.682120     -0.080536                    
EOF
